0 SL-8 R/B
1 08073U 75074B   13281.10455964 -.00000040  00000-0 -57236-4 0  1568
2 08073 082.9002 253.1851 0019958 285.2106 122.9959 13.75791136914860
0 SL-8 R/B
1 08073U 75074B   13283.45203301  .00000006  00000-0 -88444-5 0  1572
2 08073 082.9005 251.4332 0019976 278.2889 230.0456 13.75791609915182
0 SL-8 R/B
1 08073U 75074B   13285.48665140  .00000028  00000-0  13242-4 0  1587
2 08073 082.9004 249.9153 0019912 272.7143 227.1021 13.75792056915469
0 SL-8 R/B
1 08073U 75074B   13287.52267671  .00000070  00000-0  57367-4 0  1595
2 08073 082.9009 248.3956 0019937 266.6633 231.6033 13.75792502915741
0 SL-8 R/B
1 08073U 75074B   13289.83416152  .00000105  00000-0  93092-4 0  1607
2 08073 082.9015 246.6706 0020032 259.7124 160.5496 13.75792797916063
0 SL-8 R/B
1 08073U 75074B   13292.01284958  .00000073  00000-0  59848-4 0  1614
2 08073 082.9018 245.0450 0020070 253.2697 151.6339 13.75792465916363
0 SL-8 R/B
1 08073U 75074B   13294.05024666  .00000107  00000-0  95613-4 0  1627
2 08073 082.9018 243.5250 0020129 247.2480 162.8997 13.75792985916644
